CCSDS_OMM_VERS = 2.0
CREATION_DATE  = 
ORIGINATOR     = 

OBJECT_NAME    = STARLINK-35911
OBJECT_ID      = 2026-041M
CENTER_NAME    = EARTH
REF_FRAME      = TEME
TIME_SYSTEM    = UTC
MEAN_ELEMENT_THEORY = SGP/SGP4

EPOCH          = 2026-03-30T08:09:47.981088
MEAN_MOTION    = 15.75343823
ECCENTRICITY   = .00008798
INCLINATION    = 53.1591
RA_OF_ASC_NODE = 318.7211
ARG_OF_PERICENTER = 53.9162
MEAN_ANOMALY   = 306.1940

EPHEMERIS_TYPE = 0
CLASSIFICATION_TYPE = U
NORAD_CAT_ID   = 68051
ELEMENT_SET_NO = 999
REV_AT_EPOCH   = 448
BSTAR          = .22057519E-2
MEAN_MOTION_DOT = .353622E-2
MEAN_MOTION_DDOT = 0

CCSDS_OMM_VERS = 2.0
CREATION_DATE  = 
ORIGINATOR     = 

OBJECT_NAME    = STARLINK-35808
OBJECT_ID      = 2026-041N
CENTER_NAME    = EARTH
REF_FRAME      = TEME
TIME_SYSTEM    = UTC
MEAN_ELEMENT_THEORY = SGP/SGP4

EPOCH          = 2026-03-30T14:00:03.000384
MEAN_MOTION    = 15.75226922
ECCENTRICITY   = .0001111
INCLINATION    = 53.1567
RA_OF_ASC_NODE = 317.7215
ARG_OF_PERICENTER = 88.8410
MEAN_ANOMALY   = 108.3760

EPHEMERIS_TYPE = 0
CLASSIFICATION_TYPE = U
NORAD_CAT_ID   = 68052
ELEMENT_SET_NO = 999
REV_AT_EPOCH   = 569
BSTAR          = .33489638E-3
MEAN_MOTION_DOT = .50978E-3
MEAN_MOTION_DDOT = 0

CCSDS_OMM_VERS = 2.0
CREATION_DATE  = 
ORIGINATOR     = 

OBJECT_NAME    = STARLINK-36919
OBJECT_ID      = 2026-041P
CENTER_NAME    = EARTH
REF_FRAME      = TEME
TIME_SYSTEM    = UTC
MEAN_ELEMENT_THEORY = SGP/SGP4

EPOCH          = 2026-03-30T14:00:03.000384
MEAN_MOTION    = 15.75221222
ECCENTRICITY   = .00008083
INCLINATION    = 53.1580
RA_OF_ASC_NODE = 317.4583
ARG_OF_PERICENTER = 82.2170
MEAN_ANOMALY   = 243.7692

EPHEMERIS_TYPE = 0
CLASSIFICATION_TYPE = U
NORAD_CAT_ID   = 68053
ELEMENT_SET_NO = 999
REV_AT_EPOCH   = 573
BSTAR          = .33825999E-3
MEAN_MOTION_DOT = .51487E-3
MEAN_MOTION_DDOT = 0

CCSDS_OMM_VERS = 2.0
CREATION_DATE  = 
ORIGINATOR     = 

OBJECT_NAME    = STARLINK-36924
OBJECT_ID      = 2026-041Q
CENTER_NAME    = EARTH
REF_FRAME      = TEME
TIME_SYSTEM    = UTC
MEAN_ELEMENT_THEORY = SGP/SGP4

EPOCH          = 2026-03-30T14:00:03.000384
MEAN_MOTION    = 15.75230255
ECCENTRICITY   = .00011392
INCLINATION    = 53.1594
RA_OF_ASC_NODE = 317.9340
ARG_OF_PERICENTER = 90.4652
MEAN_ANOMALY   = 3.7346

EPHEMERIS_TYPE = 0
CLASSIFICATION_TYPE = U
NORAD_CAT_ID   = 68054
ELEMENT_SET_NO = 999
REV_AT_EPOCH   = 573
BSTAR          = .27678865E-3
MEAN_MOTION_DOT = .41983E-3
MEAN_MOTION_DDOT = 0

CCSDS_OMM_VERS = 2.0
CREATION_DATE  = 
ORIGINATOR     = 

OBJECT_NAME    = STARLINK-35998
OBJECT_ID      = 2026-041R
CENTER_NAME    = EARTH
REF_FRAME      = TEME
TIME_SYSTEM    = UTC
MEAN_ELEMENT_THEORY = SGP/SGP4

EPOCH          = 2026-03-30T08:28:55.882848
MEAN_MOTION    = 15.75281873
ECCENTRICITY   = .00010589
INCLINATION    = 53.1585
RA_OF_ASC_NODE = 318.8077
ARG_OF_PERICENTER = 57.3108
MEAN_ANOMALY   = 302.8014

EPHEMERIS_TYPE = 0
CLASSIFICATION_TYPE = U
NORAD_CAT_ID   = 68055
ELEMENT_SET_NO = 999
REV_AT_EPOCH   = 448
BSTAR          = .14090779E-2
MEAN_MOTION_DOT = .22152E-2
MEAN_MOTION_DDOT = 0

CCSDS_OMM_VERS = 2.0
CREATION_DATE  = 
ORIGINATOR     = 

OBJECT_NAME    = STARLINK-36845
OBJECT_ID      = 2026-041S
CENTER_NAME    = EARTH
REF_FRAME      = TEME
TIME_SYSTEM    = UTC
MEAN_ELEMENT_THEORY = SGP/SGP4

EPOCH          = 2026-03-30T08:22:23.980224
MEAN_MOTION    = 15.75310305
ECCENTRICITY   = .00014586
INCLINATION    = 53.1596
RA_OF_ASC_NODE = 318.7789
ARG_OF_PERICENTER = 70.2186
MEAN_ANOMALY   = 289.8991

EPHEMERIS_TYPE = 0
CLASSIFICATION_TYPE = U
NORAD_CAT_ID   = 68056
ELEMENT_SET_NO = 999
REV_AT_EPOCH   = 448
BSTAR          = .20143383E-2
MEAN_MOTION_DOT = .321144E-2
MEAN_MOTION_DDOT = 0

CCSDS_OMM_VERS = 2.0
CREATION_DATE  = 
ORIGINATOR     = 

OBJECT_NAME    = STARLINK-36954
OBJECT_ID      = 2026-041T
CENTER_NAME    = EARTH
REF_FRAME      = TEME
TIME_SYSTEM    = UTC
MEAN_ELEMENT_THEORY = SGP/SGP4

EPOCH          = 2026-03-29T08:39:49.304448
MEAN_MOTION    = 15.75330721
ECCENTRICITY   = .0003416
INCLINATION    = 53.1602
RA_OF_ASC_NODE = 324.0052
ARG_OF_PERICENTER = 68.6575
MEAN_ANOMALY   = 291.4809

EPHEMERIS_TYPE = 0
CLASSIFICATION_TYPE = U
NORAD_CAT_ID   = 68057
ELEMENT_SET_NO = 999
REV_AT_EPOCH   = 432
BSTAR          = .21019356E-2
MEAN_MOTION_DOT = .336059E-2
MEAN_MOTION_DDOT = 0

CCSDS_OMM_VERS = 2.0
CREATION_DATE  = 
ORIGINATOR     = 

OBJECT_NAME    = STARLINK-36899
OBJECT_ID      = 2026-041U
CENTER_NAME    = EARTH
REF_FRAME      = TEME
TIME_SYSTEM    = UTC
MEAN_ELEMENT_THEORY = SGP/SGP4

EPOCH          = 2026-03-30T14:00:03.000384
MEAN_MOTION    = 15.75223376
ECCENTRICITY   = .00009803
INCLINATION    = 53.1589
RA_OF_ASC_NODE = 317.8805
ARG_OF_PERICENTER = 97.1573
MEAN_ANOMALY   = 22.7944

EPHEMERIS_TYPE = 0
CLASSIFICATION_TYPE = U
NORAD_CAT_ID   = 68058
ELEMENT_SET_NO = 999
REV_AT_EPOCH   = 573
BSTAR          = .4799663E-3
MEAN_MOTION_DOT = .73524E-3
MEAN_MOTION_DDOT = 0

CCSDS_OMM_VERS = 2.0
CREATION_DATE  = 
ORIGINATOR     = 

OBJECT_NAME    = STARLINK-36917
OBJECT_ID      = 2026-041V
CENTER_NAME    = EARTH
REF_FRAME      = TEME
TIME_SYSTEM    = UTC
MEAN_ELEMENT_THEORY = SGP/SGP4

EPOCH          = 2026-03-30T14:47:27.151008
MEAN_MOTION    = 15.75529787
ECCENTRICITY   = .00011043
INCLINATION    = 53.1571
RA_OF_ASC_NODE = 317.6080
ARG_OF_PERICENTER = 140.1944
MEAN_ANOMALY   = 219.9158

EPHEMERIS_TYPE = 0
CLASSIFICATION_TYPE = U
NORAD_CAT_ID   = 68059
ELEMENT_SET_NO = 999
REV_AT_EPOCH   = 452
BSTAR          = .33741568E-2
MEAN_MOTION_DOT = .559352E-2
MEAN_MOTION_DDOT = 0

CCSDS_OMM_VERS = 2.0
CREATION_DATE  = 
ORIGINATOR     = 

OBJECT_NAME    = STARLINK-36959
OBJECT_ID      = 2026-041W
CENTER_NAME    = EARTH
REF_FRAME      = TEME
TIME_SYSTEM    = UTC
MEAN_ELEMENT_THEORY = SGP/SGP4

EPOCH          = 2026-03-30T14:54:27.604512
MEAN_MOTION    = 15.75396436
ECCENTRICITY   = .00009322
INCLINATION    = 53.1572
RA_OF_ASC_NODE = 317.6385
ARG_OF_PERICENTER = 122.3824
MEAN_ANOMALY   = 237.7286

EPHEMERIS_TYPE = 0
CLASSIFICATION_TYPE = U
NORAD_CAT_ID   = 68060
ELEMENT_SET_NO = 999
REV_AT_EPOCH   = 452
BSTAR          = .27938028E-2
MEAN_MOTION_DOT = .454583E-2
MEAN_MOTION_DDOT = 0

CCSDS_OMM_VERS = 2.0
CREATION_DATE  = 
ORIGINATOR     = 

OBJECT_NAME    = STARLINK-36915
OBJECT_ID      = 2026-041X
CENTER_NAME    = EARTH
REF_FRAME      = TEME
TIME_SYSTEM    = UTC
MEAN_ELEMENT_THEORY = SGP/SGP4

EPOCH          = 2026-03-30T14:28:18.837120
MEAN_MOTION    = 15.75343664
ECCENTRICITY   = .00007585
INCLINATION    = 53.1592
RA_OF_ASC_NODE = 317.5181
ARG_OF_PERICENTER = 105.7525
MEAN_ANOMALY   = 254.3579

EPHEMERIS_TYPE = 0
CLASSIFICATION_TYPE = U
NORAD_CAT_ID   = 68061
ELEMENT_SET_NO = 999
REV_AT_EPOCH   = 452
BSTAR          = .21884028E-2
MEAN_MOTION_DOT = .350714E-2
MEAN_MOTION_DDOT = 0

CCSDS_OMM_VERS = 2.0
CREATION_DATE  = 
ORIGINATOR     = 

OBJECT_NAME    = STARLINK-36952
OBJECT_ID      = 2026-041Y
CENTER_NAME    = EARTH
REF_FRAME      = TEME
TIME_SYSTEM    = UTC
MEAN_ELEMENT_THEORY = SGP/SGP4

EPOCH          = 2026-03-30T05:52:20.927424
MEAN_MOTION    = 15.75278754
ECCENTRICITY   = .0001021
INCLINATION    = 53.1596
RA_OF_ASC_NODE = 319.5607
ARG_OF_PERICENTER = 38.1450
MEAN_ANOMALY   = 321.9642

EPHEMERIS_TYPE = 0
CLASSIFICATION_TYPE = U
NORAD_CAT_ID   = 68062
ELEMENT_SET_NO = 999
REV_AT_EPOCH   = 446
BSTAR          = .12917E-2
MEAN_MOTION_DOT = .202526E-2
MEAN_MOTION_DDOT = 0

