STARLINK-35911          
1 68051U 26041M   26089.34013867  .00353622  00000+0  22058-2 0  9999
2 68051  53.1591 318.7211 0000879  53.9162 306.1940 15.75343823  4489
STARLINK-35808          
1 68052U 26041N   26089.58336806  .00050978  00000+0  33490-3 0  9998
2 68052  53.1567 317.7215 0001111  88.8410 108.3760 15.75226922  5695
STARLINK-36919          
1 68053U 26041P   26089.58336806  .00051487  00000+0  33826-3 0  9998
2 68053  53.1580 317.4583 0000808  82.2170 243.7692 15.75221222  5730
STARLINK-36924          
1 68054U 26041Q   26089.58336806  .00041983  00000+0  27679-3 0  9998
2 68054  53.1594 317.9340 0001139  90.4652   3.7346 15.75230255  5732
STARLINK-35998          
1 68055U 26041R   26089.35342457  .00221520  00000+0  14091-2 0  9993
2 68055  53.1585 318.8077 0001058  57.3108 302.8014 15.75281873  4486
STARLINK-36845          
1 68056U 26041S   26089.34888866  .00321144  00000+0  20143-2 0  9990
2 68056  53.1596 318.7789 0001458  70.2186 289.8991 15.75310305  4483
STARLINK-36954          
1 68057U 26041T   26088.36098732  .00336059  00000+0  21019-2 0  9991
2 68057  53.1602 324.0052 0003416  68.6575 291.4809 15.75330721  4328
STARLINK-36899          
1 68058U 26041U   26089.58336806  .00073524  00000+0  47997-3 0  9993
2 68058  53.1589 317.8805 0000980  97.1573  22.7944 15.75223376  5735
STARLINK-36917          
1 68059U 26041V   26089.61628647  .00559352  00000+0  33742-2 0  9995
2 68059  53.1571 317.6080 0001104 140.1944 219.9158 15.75529787  4528
STARLINK-36959          
1 68060U 26041W   26089.62115283  .00454583  00000+0  27938-2 0  9995
2 68060  53.1572 317.6385 0000932 122.3824 237.7286 15.75396436  4529
STARLINK-36915          
1 68061U 26041X   26089.60299580  .00350714  00000+0  21884-2 0  9992
2 68061  53.1592 317.5181 0000758 105.7525 254.3579 15.75343664  4529
STARLINK-36952          
1 68062U 26041Y   26089.24468666  .00202526  00000+0  12917-2 0  9990
2 68062  53.1596 319.5607 0001021  38.1450 321.9642 15.75278754  4461
